{
  "type": "FeatureCollection",
  "features": [
    {
      "type": "Feature",
      "properties": {
        "norad_id": 66509,
        "name": "STARLINK-35598",
        "group": "last-30-days",
        "lat": 42.45940312996615,
        "lon": -90.0279874535751,
        "alt_km": 370.9580197962723,
        "timestamp": "2025-12-05T05:43:13.896599+00:00",
        "meta_object_name": "STARLINK-35598",
        "meta_object_id": "2025-263AA",
        "meta_epoch": "2025-12-04T18:00:02.000160",
        "meta_mean_motion": 15.66050644,
        "meta_eccentricity": 0.0001327,
        "meta_inclination": 42.9987,
        "meta_ra_of_asc_node": 172.0046,
        "meta_arg_of_pericenter": 261.7411,
        "meta_mean_anomaly": 321.7353,
        "meta_ephemeris_type": 0,
        "meta_classification_type": "U",
        "meta_norad_cat_id": 66509,
        "meta_element_set_no": 999,
        "meta_rev_at_epoch": 435,
        "meta_bstar": -0.021936,
        "meta_mean_motion_dot": -0.02029753,
        "meta_mean_motion_ddot": 0,
        "tle_line1": "1 66509U 25263AA  25338.75002315 -.02029753  00000+0 -21936-1 0  9999",
        "tle_line2": "2 66509  42.9987 172.0046 0001327 261.7411 321.7353 15.66050644  4355"
      },
      "geometry": {
        "type": "Point",
        "coordinates": [
          -90.0279874535751,
          42.45940312996615
        ]
      }
    },
    {
      "type": "Feature",
      "properties": {
        "norad_id": 66510,
        "name": "STARLINK-35600",
        "group": "last-30-days",
        "lat": 42.93677518791552,
        "lon": -97.82192629256333,
        "alt_km": 370.8964859553698,
        "timestamp": "2025-12-05T05:43:13.896609+00:00",
        "meta_object_name": "STARLINK-35600",
        "meta_object_id": "2025-263AB",
        "meta_epoch": "2025-12-04T18:00:02.000160",
        "meta_mean_motion": 15.66052687,
        "meta_eccentricity": 0.0001307,
        "meta_inclination": 42.9987,
        "meta_ra_of_asc_node": 172.0195,
        "meta_arg_of_pericenter": 263.2793,
        "meta_mean_anomaly": 314.4449,
        "meta_ephemeris_type": 0,
        "meta_classification_type": "U",
        "meta_norad_cat_id": 66510,
        "meta_element_set_no": 999,
        "meta_rev_at_epoch": 435,
        "meta_bstar": -0.021968,
        "meta_mean_motion_dot": -0.02032457,
        "meta_mean_motion_ddot": 0,
        "tle_line1": "1 66510U 25263AB  25338.75002315 -.02032457  00000+0 -21968-1 0  9991",
        "tle_line2": "2 66510  42.9987 172.0195 0001307 263.2793 314.4449 15.66052687  4354"
      },
      "geometry": {
        "type": "Point",
        "coordinates": [
          -97.82192629256333,
          42.93677518791552
        ]
      }
    },
    {
      "type": "Feature",
      "properties": {
        "norad_id": 66511,
        "name": "STARLINK-35444",
        "group": "last-30-days",
        "lat": 42.67733533915169,
        "lon": -92.61014648734069,
        "alt_km": 370.934284980799,
        "timestamp": "2025-12-05T05:43:13.896619+00:00",
        "meta_object_name": "STARLINK-35444",
        "meta_object_id": "2025-263AC",
        "meta_epoch": "2025-12-04T18:00:02.000160",
        "meta_mean_motion": 15.66049622,
        "meta_eccentricity": 0.0001319,
        "meta_inclination": 42.9987,
        "meta_ra_of_asc_node": 172.0103,
        "meta_arg_of_pericenter": 263.3343,
        "meta_mean_anomaly": 318.2266,
        "meta_ephemeris_type": 0,
        "meta_classification_type": "U",
        "meta_norad_cat_id": 66511,
        "meta_element_set_no": 999,
        "meta_rev_at_epoch": 435,
        "meta_bstar": -0.021933,
        "meta_mean_motion_dot": -0.02029459,
        "meta_mean_motion_ddot": 0,
        "tle_line1": "1 66511U 25263AC  25338.75002315 -.02029459  00000+0 -21933-1 0  9992",
        "tle_line2": "2 66511  42.9987 172.0103 0001319 263.3343 318.2266 15.66049622  4353"
      },
      "geometry": {
        "type": "Point",
        "coordinates": [
          -92.61014648734069,
          42.67733533915169
        ]
      }
    },
    {
      "type": "Feature",
      "properties": {
        "norad_id": 66512,
        "name": "STARLINK-35366",
        "group": "last-30-days",
        "lat": 42.18353031142834,
        "lon": -87.46323199317746,
        "alt_km": 370.9614658441651,
        "timestamp": "2025-12-05T05:43:13.896629+00:00",
        "meta_object_name": "STARLINK-35366",
        "meta_object_id": "2025-263AD",
        "meta_epoch": "2025-12-04T18:00:02.000160",
        "meta_mean_motion": 15.66052264,
        "meta_eccentricity": 0.0001284,
        "meta_inclination": 42.9987,
        "meta_ra_of_asc_node": 172.0004,
        "meta_arg_of_pericenter": 261.17,
        "meta_mean_anomaly": 324.223,
        "meta_ephemeris_type": 0,
        "meta_classification_type": "U",
        "meta_norad_cat_id": 66512,
        "meta_element_set_no": 999,
        "meta_rev_at_epoch": 435,
        "meta_bstar": -0.021959,
        "meta_mean_motion_dot": -0.02031715,
        "meta_mean_motion_ddot": 0,
        "tle_line1": "1 66512U 25263AD  25338.75002315 -.02031715  00000+0 -21959-1 0  9999",
        "tle_line2": "2 66512  42.9987 172.0004 0001284 261.1700 324.2230 15.66052264  4352"
      },
      "geometry": {
        "type": "Point",
        "coordinates": [
          -87.46323199317746,
          42.18353031142834
        ]
      }
    },
    {
      "type": "Feature",
      "properties": {
        "norad_id": 66513,
        "name": "STARLINK-35692",
        "group": "last-30-days",
        "lat": 42.83671875573074,
        "lon": -95.2107535240416,
        "alt_km": 370.93958270980784,
        "timestamp": "2025-12-05T05:43:13.896641+00:00",
        "meta_object_name": "STARLINK-35692",
        "meta_object_id": "2025-263AE",
        "meta_epoch": "2025-12-04T18:00:02.000160",
        "meta_mean_motion": 15.66050511,
        "meta_eccentricity": 0.0001352,
        "meta_inclination": 42.9987,
        "meta_ra_of_asc_node": 172.0148,
        "meta_arg_of_pericenter": 264.0596,
        "meta_mean_anomaly": 315.583,
        "meta_ephemeris_type": 0,
        "meta_classification_type": "U",
        "meta_norad_cat_id": 66513,
        "meta_element_set_no": 999,
        "meta_rev_at_epoch": 435,
        "meta_bstar": -0.021942,
        "meta_mean_motion_dot": -0.02030267,
        "meta_mean_motion_ddot": 0,
        "tle_line1": "1 66513U 25263AE  25338.75002315 -.02030267  00000+0 -21942-1 0  9993",
        "tle_line2": "2 66513  42.9987 172.0148 0001352 264.0596 315.5830 15.66050511  4355"
      },
      "geometry": {
        "type": "Point",
        "coordinates": [
          -95.2107535240416,
          42.83671875573074
        ]
      }
    },
    {
      "type": "Feature",
      "properties": {
        "norad_id": 66514,
        "name": "SENTINEL-6B",
        "group": "last-30-days",
        "lat": 11.307527708784313,
        "lon": -176.82441036943345,
        "alt_km": 1320.4482625248193,
        "timestamp": "2025-12-05T05:43:13.896652+00:00",
        "meta_object_name": "SENTINEL-6B",
        "meta_object_id": "2025-264A",
        "meta_epoch": "2025-12-04T16:35:23.950752",
        "meta_mean_motion": 12.85877695,
        "meta_eccentricity": 0.0011543,
        "meta_inclination": 66.039,
        "meta_ra_of_asc_node": 179.2209,
        "meta_arg_of_pericenter": 268.4543,
        "meta_mean_anomaly": 91.5153,
        "meta_ephemeris_type": 0,
        "meta_classification_type": "U",
        "meta_norad_cat_id": 66514,
        "meta_element_set_no": 999,
        "meta_rev_at_epoch": 225,
        "meta_bstar": 0.00030155,
        "meta_mean_motion_dot": 1.3e-07,
        "meta_mean_motion_ddot": 0,
        "tle_line1": "1 66514U 25264A   25338.69124943  .00000013  00000+0  30155-3 0  9990",
        "tle_line2": "2 66514  66.0390 179.2209 0011543 268.4543  91.5153 12.85877695  2255"
      },
      "geometry": {
        "type": "Point",
        "coordinates": [
          -176.82441036943345,
          11.307527708784313
        ]
      }
    },
    {
      "type": "Feature",
      "properties": {
        "norad_id": 66516,
        "name": "STARLINK-35924",
        "group": "last-30-days",
        "lat": 12.752370223398598,
        "lon": -95.74387759325445,
        "alt_km": 355.3842029751622,
        "timestamp": "2025-12-05T05:43:13.896662+00:00",
        "meta_object_name": "STARLINK-35924",
        "meta_object_id": "2025-265A",
        "meta_epoch": "2025-12-04T18:00:02.000160",
        "meta_mean_motion": 15.72744496,
        "meta_eccentricity": 0.0001334,
        "meta_inclination": 42.9998,
        "meta_ra_of_asc_node": 101.2614,
        "meta_arg_of_pericenter": 278.615,
        "meta_mean_anomaly": 355.9207,
        "meta_ephemeris_type": 0,
        "meta_classification_type": "U",
        "meta_norad_cat_id": 66516,
        "meta_element_set_no": 999,
        "meta_rev_at_epoch": 369,
        "meta_bstar": -0.015031,
        "meta_mean_motion_dot": -0.01826982,
        "meta_mean_motion_ddot": 0,
        "tle_line1": "1 66516U 25265A   25338.75002315 -.01826982  00000+0 -15031-1 0  9996",
        "tle_line2": "2 66516  42.9998 101.2614 0001334 278.6150 355.9207 15.72744496  3690"
      },
      "geometry": {
        "type": "Point",
        "coordinates": [
          -95.74387759325445,
          12.752370223398598
        ]
      }
    }
  ]
}